STARLINK-37531          
1 69136U 26110N   26157.91670139 -.02466188  00000+0 -20770-1 0  9995
2 69136  97.2843 354.2296 0001953  91.2884  98.5117 15.73485172  4009
STARLINK-37662          
1 69137U 26110P   26157.91670139 -.02505518  00000+0 -26443-1 0  9990
2 69137  97.2849 354.2116 0001989  81.8661  66.2369 15.67551319  4005
STARLINK-37658          
1 69138U 26110Q   26157.91670139 -.02451657  00000+0 -37020-1 0  9998
2 69138  97.2856 354.1697 0001560  82.2174 327.8247 15.58378148  4004
STARLINK-37659          
1 69139U 26110R   26157.91670139 -.02359367  00000+0 -38076-1 0  9996
2 69139  97.2855 354.1618 0001245 105.4050 274.6446 15.56465653  4004
STARLINK-37653          
1 69140U 26110S   26157.91670139 -.02409205  00000+0 -41189-1 0  9994
2 69140  97.2856 354.1592 0001428 104.2635 268.7039 15.54992272  4009
STARLINK-37654          
1 69141U 26110T   26157.91670139 -.02458240  00000+0 -27195-1 0  9999
2 69141  97.2845 354.2203 0001959  78.0437  91.3727 15.66326470  4003
STARLINK-37655          
1 69142U 26110U   26157.91670139 -.02494800  00000+0 -23158-1 0  9997
2 69142  97.2844 354.2296 0001794  91.9258  98.3977 15.70635108  4007
STARLINK-37636          
1 69143U 26110V   26157.80910252 -.00547481  00000+0 -31152-2 0  9995
2 69143  97.2837 354.1446 0002028 102.7359 257.4136 15.80280945  4001
STARLINK-37638          
1 69144U 26110W   26157.80830485  .00062886  00000+0  32767-3 0  9998
2 69144  97.2838 354.1454 0001552  95.3982 264.7464 15.80749623  4000
STARLINK-37657          
1 69145U 26110X   26157.91670139 -.02502873  00000+0 -28727-1 0  9997
2 69145  97.2850 354.2249 0001988  89.4645  89.4761 15.65478868  4051
STARLINK-37639          
1 69146U 26110Y   26157.74349045  .00164857  00000+0  84519-3 0  9993
2 69146  97.2842 354.0809 0001626  87.6130 272.5325 15.80817130  3990
STARLINK-37661          
1 69147U 26110Z   26157.91670139 -.02497412  00000+0 -36733-1 0  9997
2 69147  97.2851 354.1973 0001925  81.4318  32.8270 15.59137284  4051
STARLINK-37395          
1 69148U 26111A   26157.83921739  .00393092  00000+0  18994-2 0  9990
2 69148  53.1581 203.5209 0002265  75.3765 284.7509 15.80946831  2622
STARLINK-37346          
1 69149U 26111B   26157.83817352  .00399552  00000+0  19287-2 0  9999
2 69149  53.1583 203.5138 0002551  68.0859 292.0435 15.80951702  2620
STARLINK-37332          
1 69150U 26111C   26157.91670139  .00215093  00000+0  10712-2 0  9991
2 69150  53.1583 203.1038 0001069  91.8369   3.2586 15.80775536  3898
STARLINK-37297          
1 69151U 26111D   26157.83795672  .00353630  00000+0  17171-2 0  9999
2 69151  53.1583 203.5122 0002301  58.2053 301.9194 15.80945562  2625
STARLINK-37317          
1 69152U 26111E   26157.83598691  .00397068  00000+0  19154-2 0  9998
2 69152  53.1584 203.4987 0001995  30.4497 329.6641 15.80973586  2628
STARLINK-37374          
1 69153U 26111F   26157.83453146  .00262642  00000+0  12909-2 0  9994
2 69153  53.1586 203.4891 0001096 308.3458  51.7466 15.80926912  2620
STARLINK-37235          
1 69154U 26111G   26157.91670139 -.02514443  00000+0 -19768-1 0  9999
2 69154  53.1590 203.1164 0001058  62.5539  26.1521 15.74004263  3890
STARLINK-37329          
1 69155U 26111H   26157.83643404  .00300948  00000+0  14722-2 0  9991
2 69155  53.1585 203.5010 0000293 299.7302  60.3691 15.80923842  2629
STARLINK-37345          
1 69156U 26111J   26157.70854689  .00186056  00000+0  92490-3 0  9998
2 69156  53.1584 204.1264 0001111 102.6268 257.4879 15.80899321  2609
STARLINK-37353          
1 69157U 26111K   26157.70833359  .00230036  00000+0  11363-2 0  9997
2 69157  53.1587 204.1246 0001449  38.9934 321.1194 15.80910385  2601
STARLINK-37363          
1 69158U 26111L   26157.83267711  .00581374  00000+0  27229-2 0  9997
2 69158  53.1581 203.4764 0001560  85.7007 274.4194 15.81131548  2627
STARLINK-37343          
1 69159U 26111M   26157.91670139 -.00711748  00000+0 -44872-2 0  9994
2 69159  53.1590 203.0559 0001002  82.7701  35.2793 15.77859440  3896
STARLINK-37328          
1 69160U 26111N   26157.83265035  .00132127  00000+0  69210-3 0  9992
2 69160  53.1584 203.4745 0006497 230.9535 129.0910 15.79901532  2622
STARLINK-37311          
1 69161U 26111P   26157.83188206 -.00720793  00000+0 -43427-2 0  9992
2 69161  53.1589 203.4722 0001296 343.2215  16.8764 15.78881435  2626
STARLINK-36286          
1 69162U 26111Q   26157.83104423 -.00834132  00000+0 -50185-2 0  9994
2 69162  53.1585 203.4656 0004202  46.1749 313.9620 15.79173538  2621
STARLINK-37196          
1 69163U 26111R   26157.91670139  .00128617  00000+0  73599-3 0  9993
2 69163  53.1588 203.0688 0001211 115.0099 356.5662 15.77978597  3892
STARLINK-36288          
1 69164U 26111S   26157.91670139  .00135847  00000+0  77677-3 0  9998
2 69164  53.1590 203.0588 0000952  91.1857  25.0098 15.77970691  3890
STARLINK-37445          
1 69165U 26111T   26157.91670139  .00129387  00000+0  73971-3 0  9994
2 69165  53.1588 203.0224 0000500  68.5943  65.4466 15.77996391  3890
