OBJECT_NAME,OBJECT_ID,EPOCH,MEAN_MOTION,ECCENTRICITY,INCLINATION,RA_OF_ASC_NODE,ARG_OF_PERICENTER,MEAN_ANOMALY,EPHEMERIS_TYPE,CLASSIFICATION_TYPE,NORAD_CAT_ID,ELEMENT_SET_NO,REV_AT_EPOCH,BSTAR,MEAN_MOTION_DOT,MEAN_MOTION_DDOT
STARLINK-37531,2026-110N,2026-06-06T22:00:03.000096,15.73485172,.00019538,97.2843,354.2296,91.2884,98.5117,0,U,69136,999,400,-.20769762E-1,-.2466188E-1,0
STARLINK-37662,2026-110P,2026-06-06T22:00:03.000096,15.67551319,.00019895,97.2849,354.2116,81.8661,66.2369,0,U,69137,999,400,-.2644316E-1,-.2505518E-1,0
STARLINK-37658,2026-110Q,2026-06-06T22:00:03.000096,15.58378148,.00015603,97.2856,354.1697,82.2174,327.8247,0,U,69138,999,400,-.370198E-1,-.2451657E-1,0
STARLINK-37659,2026-110R,2026-06-06T22:00:03.000096,15.56465653,.00012454,97.2855,354.1618,105.4050,274.6446,0,U,69139,999,400,-.38076401E-1,-.2359367E-1,0
STARLINK-37653,2026-110S,2026-06-06T22:00:03.000096,15.54992272,.00014289,97.2856,354.1592,104.2635,268.7039,0,U,69140,999,400,-.41188662E-1,-.2409205E-1,0
STARLINK-37654,2026-110T,2026-06-06T22:00:03.000096,15.66326470,.00019595,97.2845,354.2203,78.0437,91.3727,0,U,69141,999,400,-.27194871E-1,-.245824E-1,0
STARLINK-37655,2026-110U,2026-06-06T22:00:03.000096,15.70635108,.0001794,97.2844,354.2296,91.9258,98.3977,0,U,69142,999,400,-.2315764E-1,-.24948E-1,0
STARLINK-37636,2026-110V,2026-06-06T19:25:06.457728,15.80280945,.00020289,97.2837,354.1446,102.7359,257.4136,0,U,69143,999,400,-.31152382E-2,-.547481E-2,0
STARLINK-37638,2026-110W,2026-06-06T19:23:57.539040,15.80749623,.00015528,97.2838,354.1454,95.3982,264.7464,0,U,69144,999,400,.32767056E-3,.62886E-3,0
STARLINK-37657,2026-110X,2026-06-06T22:00:03.000096,15.65478868,.0001988,97.2850,354.2249,89.4645,89.4761,0,U,69145,999,405,-.28726665E-1,-.2502873E-1,0
STARLINK-37639,2026-110Y,2026-06-06T17:50:37.574880,15.80817130,.00016264,97.2842,354.0809,87.6130,272.5325,0,U,69146,999,399,.8451881E-3,.164857E-2,0
STARLINK-37661,2026-110Z,2026-06-06T22:00:03.000096,15.59137284,.00019257,97.2851,354.1973,81.4318,32.8270,0,U,69147,999,405,-.3673327E-1,-.2497412E-1,0
STARLINK-37395,2026-111A,2026-06-06T20:08:28.382496,15.80946831,.0002265,53.1581,203.5209,75.3765,284.7509,0,U,69148,999,262,.1899434E-2,.393092E-2,0
STARLINK-37346,2026-111B,2026-06-06T20:06:58.192128,15.80951702,.00025515,53.1583,203.5138,68.0859,292.0435,0,U,69149,999,262,.19286886E-2,.399552E-2,0
STARLINK-37332,2026-111C,2026-06-06T22:00:03.000096,15.80775536,.00010693,53.1583,203.1038,91.8369,3.2586,0,U,69150,999,389,.10711598E-2,.215093E-2,0
STARLINK-37297,2026-111D,2026-06-06T20:06:39.460608,15.80945562,.00023014,53.1583,203.5122,58.2053,301.9194,0,U,69151,999,262,.17170999E-2,.35363E-2,0
STARLINK-37317,2026-111E,2026-06-06T20:03:49.269024,15.80973586,.00019959,53.1584,203.4987,30.4497,329.6641,0,U,69152,999,262,.19153659E-2,.397068E-2,0
STARLINK-37374,2026-111F,2026-06-06T20:01:43.518144,15.80926912,.00010966,53.1586,203.4891,308.3458,51.7466,0,U,69153,999,262,.12909324E-2,.262642E-2,0
STARLINK-37235,2026-111G,2026-06-06T22:00:03.000096,15.74004263,.00010581,53.1590,203.1164,62.5539,26.1521,0,U,69154,999,389,-.19767784E-1,-.2514443E-1,0
STARLINK-37329,2026-111H,2026-06-06T20:04:27.901056,15.80923842,.00002937,53.1585,203.5010,299.7302,60.3691,0,U,69155,999,262,.14722232E-2,.300948E-2,0
STARLINK-37345,2026-111J,2026-06-06T17:00:18.451296,15.80899321,.00011112,53.1584,204.1264,102.6268,257.4879,0,U,69156,999,260,.92489634E-3,.186056E-2,0
STARLINK-37353,2026-111K,2026-06-06T17:00:00.022176,15.80910385,.00014494,53.1587,204.1246,38.9934,321.1194,0,U,69157,999,260,.11362783E-2,.230036E-2,0
STARLINK-37363,2026-111L,2026-06-06T19:59:03.302304,15.81131548,.000156,53.1581,203.4764,85.7007,274.4194,0,U,69158,999,262,.27228837E-2,.581374E-2,0
STARLINK-37343,2026-111M,2026-06-06T22:00:03.000096,15.77859440,.00010025,53.1590,203.0559,82.7701,35.2793,0,U,69159,999,389,-.4487179E-2,-.711748E-2,0
STARLINK-37328,2026-111N,2026-06-06T19:59:00.990240,15.79901532,.00064972,53.1584,203.4745,230.9535,129.0910,0,U,69160,999,262,.69209764E-3,.132127E-2,0
STARLINK-37311,2026-111P,2026-06-06T19:57:54.609984,15.78881435,.00012961,53.1589,203.4722,343.2215,16.8764,0,U,69161,999,262,-.43427287E-2,-.720793E-2,0
STARLINK-36286,2026-111Q,2026-06-06T19:56:42.221472,15.79173538,.00042028,53.1585,203.4656,46.1749,313.9620,0,U,69162,999,262,-.50185169E-2,-.834132E-2,0
STARLINK-37196,2026-111R,2026-06-06T22:00:03.000096,15.77978597,.00012117,53.1588,203.0688,115.0099,356.5662,0,U,69163,999,389,.73598735E-3,.128617E-2,0
STARLINK-36288,2026-111S,2026-06-06T22:00:03.000096,15.77970691,.00009522,53.1590,203.0588,91.1857,25.0098,0,U,69164,999,389,.77676591E-3,.135847E-2,0
STARLINK-37445,2026-111T,2026-06-06T22:00:03.000096,15.77996391,.00005009,53.1588,203.0224,68.5943,65.4466,0,U,69165,999,389,.73971253E-3,.129387E-2,0
